NORAD_CAT_ID,OBJECT_NAME,OBJECT_TYPE,EPOCH,MEAN_MOTION,ECCENTRICITY,INCLINATION,RA_OF_ASC_NODE,ARG_OF_PERICENTER,MEAN_ANOMALY,BSTAR,MEAN_MOTION_DOT,MEAN_MOTION_DDOT,TLE_LINE0,TLE_LINE1,TLE_LINE2,SEMIMAJOR_AXIS,PERIOD,APOGEE,PERIGEE,DECAYED
53993.0,STARLINK-5121,PAYLOAD,2023-02-16 12:49:34,15.09022888,0.0001843,53.2182,183.9704,77.8029,282.317,-0.002636,-0.00042205,0.0,0 STARLINK-5121,1 53993U 22125AF  23047.53442615 -.00042205  00000-0 -26360-2 0  9991,2 53993  53.2182 183.9704 0001843  77.8029 282.3170 15.09022888 20876,6917.321,95.426,540.461,537.912,0.0
53993.0,STARLINK-5121,PAYLOAD,2023-02-16 16:00:18,15.09022976,0.0001541,53.2179,183.3767,74.7172,285.399,-0.0024555,-0.0003935,0.0,0 STARLINK-5121,1 53993U 22125AF  23047.66688345 -.00039350  00000-0 -24555-2 0  9998,2 53993  53.2179 183.3767 0001541  74.7172 285.3990 15.09022976 20977,6917.321,95.426,540.252,538.12,0.0
53993.0,STARLINK-5121,PAYLOAD,2023-02-16 20:46:30,15.08891535,0.0001077,53.2189,182.4821,70.48,289.6309,-0.00030169,-5.093e-05,0.0,0 STARLINK-5121,1 53993U 22125AF  23047.86562672 -.00005093  00000-0 -30169-3 0  9990,2 53993  53.2189 182.4821 0001077  70.4800 289.6309 15.08891535 20924,6917.723,95.434,540.333,538.843,0.0
53993.0,STARLINK-5121,PAYLOAD,2023-02-16 23:57:17,15.08872505,0.0001361,53.2184,181.8888,55.6163,304.4957,-0.00043622,-7.23e-05,0.0,0 STARLINK-5121,1 53993U 22125AF  23047.99811987 -.00007230  00000-0 -43622-3 0  9993,2 53993  53.2184 181.8888 0001361  55.6163 304.4957 15.08872505 21021,6917.781,95.435,540.588,538.705,0.0
53993.0,STARLINK-5121,PAYLOAD,2023-02-17 07:54:14,15.08833085,0.0001741,53.2174,180.4037,60.9718,299.1448,4.203e-05,3.81e-06,0.0,0 STARLINK-5121,1 53993U 22125AF  23048.32933372  .00000381  00000-0  42030-4 0  9995,2 53993  53.2174 180.4037 0001741  60.9718 299.1448 15.08833085 21078,6917.902,95.438,540.971,538.562,0.0
53993.0,STARLINK-5121,PAYLOAD,2023-02-17 11:05:01,15.08829407,0.0001724,53.2181,179.8067,64.8314,295.2857,-1.1486e-05,-4.71e-06,0.0,0 STARLINK-5121,1 53993U 22125AF  23048.46181789 -.00000471  00000-0 -11486-4 0  9990,2 53993  53.2181 179.8067 0001724  64.8314 295.2857 15.08829407 21015,6917.913,95.438,540.97,538.585,0.0
53993.0,STARLINK-5121,PAYLOAD,2023-02-17 15:51:09,15.0884765,0.0001246,53.2198,178.9153,64.5432,295.5689,6.2677e-05,7.1e-06,0.0,0 STARLINK-5121,1 53993U 22125AF  23048.66052315  .00000710  00000-0  62677-4 0  9996,2 53993  53.2198 178.9153 0001246  64.5432 295.5689 15.08847650 21124,6917.857,95.437,540.584,538.86,0.0
53993.0,STARLINK-5121,PAYLOAD,2023-02-18 10:55:47,15.08844181,0.0001234,53.2187,175.3506,74.7173,285.3955,-6.0177e-05,-1.246e-05,0.0,0 STARLINK-5121,1 53993U 22125AF  23049.45541195 -.00001246  00000-0 -60177-4 0  9993,2 53993  53.2187 175.3506 0001234  74.7173 285.3955 15.08844181 21249,6917.868,95.437,540.586,538.879,0.0
53993.0,STARLINK-5121,PAYLOAD,2023-02-19 13:57:21,15.08836934,0.0001081,53.2181,170.2946,62.332,297.7782,4.0406e-05,3.55e-06,0.0,0 STARLINK-5121,1 53993U 22125AF  23050.58149426  .00000355  00000-0  40406-4 0  9991,2 53993  53.2181 170.2946 0001081  62.3320 297.7782 15.08836934 21334,6917.89,95.438,540.503,539.007,0.0
53993.0,STARLINK-5121,PAYLOAD,2023-02-19 17:08:06,15.08848072,0.0001161,53.2189,169.6949,80.3462,279.7662,1.2944e-05,-8.2e-07,0.0,0 STARLINK-5121,1 53993U 22125AF  23050.71396686 -.00000082  00000-0  12944-4 0  9992,2 53993  53.2189 169.6949 0001161  80.3462 279.7662 15.08848072 21437,6917.856,95.437,540.524,538.918,0.0
53993.0,STARLINK-5121,PAYLOAD,2023-02-20 01:05:03,15.08834239,0.0001292,53.2205,168.2112,61.3424,298.7698,5.6586e-05,6.13e-06,0.0,0 STARLINK-5121,1 53993U 22125AF  23051.04517579  .00000613  00000-0  56586-4 0  9994,2 53993  53.2205 168.2112 0001292  61.3424 298.7698 15.08834239 21480,6917.898,95.438,540.657,538.869,0.0
53993.0,STARLINK-5121,PAYLOAD,2023-02-20 13:48:08,15.08840908,0.0001042,53.219,165.8328,76.1304,283.9804,1.5779e-06,-2.63e-06,0.0,0 STARLINK-5121,1 53993U 22125AF  23051.57509420 -.00000263  00000-0  15779-5 0  9990,2 53993  53.2190 165.8328 0001042  76.1304 283.9804 15.08840908 21484,6917.878,95.437,540.463,539.022,0.0
53993.0,STARLINK-5121,PAYLOAD,2023-02-21 10:28:08,15.08841633,9.53e-05,53.2191,161.9672,82.1484,277.9617,0.00012279,1.667e-05,0.0,0 STARLINK-5121,1 53993U 22125AF  23052.43620959  .00001667  00000-0  12279-3 0  9995,2 53993  53.2191 161.9672 0000953  82.1484 277.9617 15.08841633 21694,6917.875,95.437,540.4,539.081,0.0
53993.0,STARLINK-5121,PAYLOAD,2023-02-21 13:38:54,15.08849299,0.0001243,53.2187,161.3706,91.2801,268.8333,0.00017035,2.425e-05,0.0,0 STARLINK-5121,1 53993U 22125AF  23052.56868392  .00002425  00000-0  17035-3 0  9992,2 53993  53.2187 161.3706 0001243  91.2801 268.8333 15.08849299 21632,6917.852,95.437,540.577,538.857,0.0
53993.0,STARLINK-5121,PAYLOAD,2023-02-21 16:49:39,15.08859223,0.0001207,53.2186,160.7762,91.9378,268.1752,0.00014586,2.035e-05,0.0,0 STARLINK-5121,1 53993U 22125AF  23052.70115736  .00002035  00000-0  14586-3 0  9990,2 53993  53.2186 160.7762 0001207  91.9378 268.1752 15.08859223 21739,6917.822,95.436,540.522,538.852,0.0
53993.0,STARLINK-5121,PAYLOAD,2023-02-22 11:54:18,15.08840704,0.0001194,53.2185,157.2098,104.7888,255.3236,7.6654e-05,9.32e-06,0.0,0 STARLINK-5121,1 53993U 22125AF  23053.49604828  .00000932  00000-0  76654-4 0  9991,2 53993  53.2185 157.2098 0001194 104.7888 255.3236 15.08840704 21857,6917.878,95.438,540.569,538.917,0.0
53993.0,STARLINK-5121,PAYLOAD,2023-02-22 13:29:41,15.08846333,0.000113,53.2188,156.9126,97.4419,262.6701,4.8897e-05,4.91e-06,0.0,0 STARLINK-5121,1 53993U 22125AF  23053.56228595  .00000491  00000-0  48897-4 0  9990,2 53993  53.2188 156.9126 0001130  97.4419 262.6701 15.08846333 21780,6917.861,95.437,540.508,538.944,0.0
53993.0,STARLINK-5121,PAYLOAD,2023-02-23 11:45:05,15.08844732,0.0001159,53.2183,152.7487,101.212,258.9003,-8.6497e-05,-1.664e-05,0.0,0 STARLINK-5121,1 53993U 22125AF  23054.48965049 -.00001664  00000-0 -86497-4 0  9997,2 53993  53.2183 152.7487 0001159 101.2120 258.9003 15.08844732 21923,6917.866,95.437,540.533,538.929,0.0
53993.0,STARLINK-5121,PAYLOAD,2023-02-23 13:20:28,15.08844344,0.0001145,53.2186,152.4513,103.537,256.575,-4.5133e-05,-1.006e-05,0.0,0 STARLINK-5121,1 53993U 22125AF  23054.55588946 -.00001006  00000-0 -45133-4 0  9994,2 53993  53.2186 152.4513 0001145 103.5370 256.5750 15.08844344 22013,6917.867,95.437,540.524,538.94,0.0
53993.0,STARLINK-5121,PAYLOAD,2023-02-24 10:00:30,15.08833607,0.0001112,53.2184,148.5878,100.3866,259.7252,3.0877e-05,2.04e-06,0.0,0 STARLINK-5121,1 53993U 22125AF  23055.41701611  .00000204  00000-0  30877-4 0  9992,2 53993  53.2184 148.5878 0001112 100.3866 259.7252 15.08833607 22146,6917.9,95.438,540.534,538.996,0.0
53993.0,STARLINK-5121,PAYLOAD,2023-02-24 11:35:53,15.08835837,0.0001179,53.2185,148.2906,98.2209,261.8917,2.5494e-05,1.18e-06,0.0,0 STARLINK-5121,1 53993U 22125AF  23055.48325479  .00000118  00000-0  25494-4 0  9996,2 53993  53.2185 148.2906 0001179  98.2209 261.8917 15.08835837 22076,6917.893,95.438,540.574,538.942,0.0
53993.0,STARLINK-5121,PAYLOAD,2023-02-24 22:43:34,15.08844018,0.0001021,53.2182,146.2101,95.8045,264.3063,4.3825e-05,4.1e-06,0.0,0 STARLINK-5121,1 53993U 22125AF  23055.94692850  .00000410  00000-0  43825-4 0  9990,2 53993  53.2182 146.2101 0001021  95.8045 264.3063 15.08844018 22223,6917.868,95.437,540.439,539.027,0.0
53993.0,STARLINK-5121,PAYLOAD,2023-02-25 11:26:41,15.08825889,0.0001084,53.218,143.8335,96.217,263.8945,2.4415e-05,1.01e-06,0.0,0 STARLINK-5121,1 53993U 22125AF  23056.47686458  .00000101  00000-0  24415-4 0  9997,2 53993  53.2180 143.8335 0001084  96.2170 263.8945 15.08825889 22303,6917.924,95.438,540.538,539.039,0.0
53993.0,STARLINK-5121,PAYLOAD,2023-02-25 22:34:22,15.08832594,0.0001451,53.219,141.7486,81.7372,278.3784,3.4008e-05,2.53e-06,0.0,0 STARLINK-5121,1 53993U 22125AF  23056.94054369  .00000253  00000-0  34008-4 0  9996,2 53993  53.2190 141.7486 0001451  81.7372 278.3784 15.08832594 22290,6917.903,95.438,540.772,538.764,0.0
53993.0,STARLINK-5121,PAYLOAD,2023-02-26 04:55:55,15.08832772,0.0001083,53.2199,140.5583,77.7469,282.3644,8.0091e-05,9.87e-06,0.0,0 STARLINK-5121,1 53993U 22125AF  23057.20550257  .00000987  00000-0  80091-4 0  9990,2 53993  53.2199 140.5583 0001083  77.7469 282.3644 15.08832772 22419,6917.902,95.438,540.517,539.018,0.0
53993.0,STARLINK-5121,PAYLOAD,2023-02-26 14:28:12,15.0885397,0.0001274,53.2196,138.7744,83.6438,276.47,0.00018289,2.625e-05,0.0,0 STARLINK-5121,1 53993U 22125AF  23057.60292665  .00002625  00000-0  18289-3 0  9990,2 53993  53.2196 138.7744 0001274  83.6438 276.4700 15.08853970 22395,6917.838,95.437,540.584,538.821,0.0
53993.0,STARLINK-5121,PAYLOAD,2023-02-26 22:25:09,15.08839429,0.0001025,53.2196,137.2878,86.5457,273.5652,2.5517e-05,1.18e-06,0.0,0 STARLINK-5121,1 53993U 22125AF  23057.93413844  .00000118  00000-0  25517-4 0  9998,2 53993  53.2196 137.2878 0001025  86.5457 273.5652 15.08839429 22526,6917.882,95.438,540.456,539.038,0.0
53993.0,STARLINK-5121,PAYLOAD,2023-02-27 04:46:42,15.08833611,0.0001486,53.2188,136.0991,88.6153,271.5009,0.00011769,1.585e-05,0.0,0 STARLINK-5121,1 53993U 22125AF  23058.19910292  .00001585  00000-0  11769-3 0  9998,2 53993  53.2188 136.0991 0001486  88.6153 271.5009 15.08833611 22483,6917.9,95.438,540.793,538.737,0.0
53993.0,STARLINK-5121,PAYLOAD,2023-02-27 14:19:00,15.08851481,0.0001455,53.2176,134.3149,93.3383,266.7776,0.00018707,2.691e-05,0.0,0 STARLINK-5121,1 53993U 22125AF  23058.59653006  .00002691  00000-0  18707-3 0  9997,2 53993  53.2176 134.3149 0001455  93.3383 266.7776 15.08851481 22628,6917.845,95.437,540.717,538.704,0.0
53993.0,STARLINK-5121,PAYLOAD,2023-02-28 10:59:02,15.0883192,0.0001784,53.2189,130.4512,76.5096,283.6095,-0.000118,-2.165e-05,0.0,0 STARLINK-5121,1 53993U 22125AF  23059.45766726 -.00002165  00000-0 -11800-3 0  9992,2 53993  53.2189 130.4512 0001784  76.5096 283.6095 15.08831920 22754,6917.905,95.438,541.004,538.536,0.0
